HULIANWANG DIGUI-168    
1 68660U 26076E   26114.73062942 -.00000662  00000+0 -71251-3 0  9998
2 68660  86.4967  62.4820 0002369 124.2847 235.8541 13.74944085  2193
CZ-6A R/B               
1 68661U 26076F   26115.83441005 -.00000025  00000+0 -24132-4 0  9992
2 68661  86.5080  61.7910 0106766  58.4154 302.7396 14.09391917  2403
STARLINK-37195          
1 68662U 26077A   26114.51980715  .00197014  00000+0  12886-2 0  9998
2 68662  97.2849 345.6557 0001143  71.7391 288.3999 15.75242835  2126
STARLINK-37222          
1 68663U 26077B   26114.39171203  .00219084  00000+0  14289-2 0  9990
2 68663  97.2857 345.5232 0000624 102.1079 258.0257 15.75245957  2107
STARLINK-37153          
1 68664U 26077C   26114.39239810  .00190528  00000+0  12480-2 0  9992
2 68664  97.2851 345.5220 0001185 119.7300 240.4084 15.75226363  2106
STARLINK-37171          
1 68665U 26077D   26114.39027959  .00143078  00000+0  94273-3 0  9991
2 68665  97.2859 345.5243 0001113  87.7459 272.3934 15.75224890  2101
STARLINK-37109          
1 68666U 26077E   26114.38992693  .00130617  00000+0  86216-3 0  9990
2 68666  97.2859 345.5248 0001090  66.5092 293.6287 15.75219516  2105
STARLINK-36295          
1 68667U 26077F   26114.51627743  .00141537  00000+0  93269-3 0  9996
2 68667  97.2852 345.6604 0001163  66.2255 293.9132 15.75226385  2121
STARLINK-37221          
1 68668U 26077G   26114.57098179  .00109301  00000+0  72328-3 0  9994
2 68668  97.2847 345.7378 0001455  93.6158 266.5274 15.75223319  2133
STARLINK-37302          
1 68669U 26077H   26114.38639981  .00117437  00000+0  77677-3 0  9997
2 68669  97.2860 345.5292 0001424  60.0413 300.0994 15.75209839  2101
STARLINK-37298          
1 68670U 26077J   26114.64156705  .00156382  00000+0  10276-2 0  9999
2 68670  97.2846 345.7937 0002116  94.2303 265.9204 15.75247873  2148
STARLINK-37224          
1 68671U 26077K   26114.57627527  .00136655  00000+0  90068-3 0  9996
2 68671  97.2844 345.7306 0001582  97.2169 262.9276 15.75235965  2130
STARLINK-37296          
1 68672U 26077L   26114.63944852  .00151926  00000+0  99887-3 0  9993
2 68672  97.2850 345.7971 0002168 100.3922 259.7587 15.75248036  2143
STARLINK-37316          
1 68673U 26077M   26114.13052707  .00311570  00000+0  20027-2 0  9990
2 68673  97.2847 345.2652 0001183  59.4023 300.7359 15.75325457  2061
STARLINK-36672          
1 68674U 26077N   26114.63733196  .00133355  00000+0  87906-3 0  9997
2 68674  97.2846 345.7998 0002207  90.8714 269.2804 15.75240966  2147
STARLINK-36669          
1 68675U 26077P   26114.63627262  .00146323  00000+0  96313-3 0  9995
2 68675  97.2843 345.8011 0001130 124.4837 235.6535 15.75239005  2146
