[{"OBJECT_NAME":"HULIANWANG DIGUI-168","OBJECT_ID":"2026-076E","EPOCH":"2026-04-24T17:32:06.381888","MEAN_MOTION":13.74944085,"ECCENTRICITY":0.0002369,"INCLINATION":86.4967,"RA_OF_ASC_NODE":62.482,"ARG_OF_PERICENTER":124.2847,"MEAN_ANOMALY":235.8541,"EPHEMERIS_TYPE":0,"CLASSIFICATION_TYPE":"U","NORAD_CAT_ID":68660,"ELEMENT_SET_NO":999,"REV_AT_EPOCH":219,"BSTAR":-0.00071251,"MEAN_MOTION_DOT":-6.62e-6,"MEAN_MOTION_DDOT":0},{"OBJECT_NAME":"CZ-6A R/B","OBJECT_ID":"2026-076F","EPOCH":"2026-04-25T20:01:33.028320","MEAN_MOTION":14.09391917,"ECCENTRICITY":0.0106766,"INCLINATION":86.508,"RA_OF_ASC_NODE":61.791,"ARG_OF_PERICENTER":58.4154,"MEAN_ANOMALY":302.7396,"EPHEMERIS_TYPE":0,"CLASSIFICATION_TYPE":"U","NORAD_CAT_ID":68661,"ELEMENT_SET_NO":999,"REV_AT_EPOCH":240,"BSTAR":-2.4132e-5,"MEAN_MOTION_DOT":-2.5e-7,"MEAN_MOTION_DDOT":0},{"OBJECT_NAME":"STARLINK-37195","OBJECT_ID":"2026-077A","EPOCH":"2026-04-24T12:28:31.337760","MEAN_MOTION":15.75242835,"ECCENTRICITY":0.00011436,"INCLINATION":97.2849,"RA_OF_ASC_NODE":345.6557,"ARG_OF_PERICENTER":71.7391,"MEAN_ANOMALY":288.3999,"EPHEMERIS_TYPE":0,"CLASSIFICATION_TYPE":"U","NORAD_CAT_ID":68662,"ELEMENT_SET_NO":999,"REV_AT_EPOCH":212,"BSTAR":0.001288551,"MEAN_MOTION_DOT":0.00197014,"MEAN_MOTION_DDOT":0},{"OBJECT_NAME":"STARLINK-37222","OBJECT_ID":"2026-077B","EPOCH":"2026-04-24T09:24:03.919392","MEAN_MOTION":15.75245957,"ECCENTRICITY":6.248e-5,"INCLINATION":97.2857,"RA_OF_ASC_NODE":345.5232,"ARG_OF_PERICENTER":102.1079,"MEAN_ANOMALY":258.0257,"EPHEMERIS_TYPE":0,"CLASSIFICATION_TYPE":"U","NORAD_CAT_ID":68663,"ELEMENT_SET_NO":999,"REV_AT_EPOCH":210,"BSTAR":0.0014288641,"MEAN_MOTION_DOT":0.00219084,"MEAN_MOTION_DDOT":0},{"OBJECT_NAME":"STARLINK-37153","OBJECT_ID":"2026-077C","EPOCH":"2026-04-24T09:25:03.195840","MEAN_MOTION":15.75226363,"ECCENTRICITY":0.00011851,"INCLINATION":97.2851,"RA_OF_ASC_NODE":345.522,"ARG_OF_PERICENTER":119.73,"MEAN_ANOMALY":240.4084,"EPHEMERIS_TYPE":0,"CLASSIFICATION_TYPE":"U","NORAD_CAT_ID":68664,"ELEMENT_SET_NO":999,"REV_AT_EPOCH":210,"BSTAR":0.0012480041,"MEAN_MOTION_DOT":0.00190528,"MEAN_MOTION_DDOT":0},{"OBJECT_NAME":"STARLINK-37171","OBJECT_ID":"2026-077D","EPOCH":"2026-04-24T09:22:00.156576","MEAN_MOTION":15.7522489,"ECCENTRICITY":0.00011137,"INCLINATION":97.2859,"RA_OF_ASC_NODE":345.5243,"ARG_OF_PERICENTER":87.7459,"MEAN_ANOMALY":272.3934,"EPHEMERIS_TYPE":0,"CLASSIFICATION_TYPE":"U","NORAD_CAT_ID":68665,"ELEMENT_SET_NO":999,"REV_AT_EPOCH":210,"BSTAR":0.00094272722,"MEAN_MOTION_DOT":0.00143078,"MEAN_MOTION_DDOT":0},{"OBJECT_NAME":"STARLINK-37109","OBJECT_ID":"2026-077E","EPOCH":"2026-04-24T09:21:29.686752","MEAN_MOTION":15.75219516,"ECCENTRICITY":0.00010904,"INCLINATION":97.2859,"RA_OF_ASC_NODE":345.5248,"ARG_OF_PERICENTER":66.5092,"MEAN_ANOMALY":293.6287,"EPHEMERIS_TYPE":0,"CLASSIFICATION_TYPE":"U","NORAD_CAT_ID":68666,"ELEMENT_SET_NO":999,"REV_AT_EPOCH":210,"BSTAR":0.00086215661,"MEAN_MOTION_DOT":0.00130617,"MEAN_MOTION_DDOT":0},{"OBJECT_NAME":"STARLINK-36295","OBJECT_ID":"2026-077F","EPOCH":"2026-04-24T12:23:26.369952","MEAN_MOTION":15.75226385,"ECCENTRICITY":0.00011639,"INCLINATION":97.2852,"RA_OF_ASC_NODE":345.6604,"ARG_OF_PERICENTER":66.2255,"MEAN_ANOMALY":293.9132,"EPHEMERIS_TYPE":0,"CLASSIFICATION_TYPE":"U","NORAD_CAT_ID":68667,"ELEMENT_SET_NO":999,"REV_AT_EPOCH":212,"BSTAR":0.00093268635,"MEAN_MOTION_DOT":0.00141537,"MEAN_MOTION_DDOT":0},{"OBJECT_NAME":"STARLINK-37221","OBJECT_ID":"2026-077G","EPOCH":"2026-04-24T13:42:12.826656","MEAN_MOTION":15.75223319,"ECCENTRICITY":0.00014555,"INCLINATION":97.2847,"RA_OF_ASC_NODE":345.7378,"ARG_OF_PERICENTER":93.6158,"MEAN_ANOMALY":266.5274,"EPHEMERIS_TYPE":0,"CLASSIFICATION_TYPE":"U","NORAD_CAT_ID":68668,"ELEMENT_SET_NO":999,"REV_AT_EPOCH":213,"BSTAR":0.00072328487,"MEAN_MOTION_DOT":0.00109301,"MEAN_MOTION_DDOT":0},{"OBJECT_NAME":"STARLINK-37302","OBJECT_ID":"2026-077H","EPOCH":"2026-04-24T09:16:24.943584","MEAN_MOTION":15.75209839,"ECCENTRICITY":0.00014243,"INCLINATION":97.286,"RA_OF_ASC_NODE":345.5292,"ARG_OF_PERICENTER":60.0413,"MEAN_ANOMALY":300.0994,"EPHEMERIS_TYPE":0,"CLASSIFICATION_TYPE":"U","NORAD_CAT_ID":68669,"ELEMENT_SET_NO":999,"REV_AT_EPOCH":210,"BSTAR":0.0007767669,"MEAN_MOTION_DOT":0.00117437,"MEAN_MOTION_DDOT":0},{"OBJECT_NAME":"STARLINK-37298","OBJECT_ID":"2026-077J","EPOCH":"2026-04-24T15:23:51.393120","MEAN_MOTION":15.75247873,"ECCENTRICITY":0.00021161,"INCLINATION":97.2846,"RA_OF_ASC_NODE":345.7937,"ARG_OF_PERICENTER":94.2303,"MEAN_ANOMALY":265.9204,"EPHEMERIS_TYPE":0,"CLASSIFICATION_TYPE":"U","NORAD_CAT_ID":68670,"ELEMENT_SET_NO":999,"REV_AT_EPOCH":214,"BSTAR":0.0010276209,"MEAN_MOTION_DOT":0.00156382,"MEAN_MOTION_DDOT":0},{"OBJECT_NAME":"STARLINK-37224","OBJECT_ID":"2026-077K","EPOCH":"2026-04-24T13:49:50.183328","MEAN_MOTION":15.75235965,"ECCENTRICITY":0.00015821,"INCLINATION":97.2844,"RA_OF_ASC_NODE":345.7306,"ARG_OF_PERICENTER":97.2169,"MEAN_ANOMALY":262.9276,"EPHEMERIS_TYPE":0,"CLASSIFICATION_TYPE":"U","NORAD_CAT_ID":68671,"ELEMENT_SET_NO":999,"REV_AT_EPOCH":213,"BSTAR":0.00090067624,"MEAN_MOTION_DOT":0.00136655,"MEAN_MOTION_DDOT":0},{"OBJECT_NAME":"STARLINK-37296","OBJECT_ID":"2026-077L","EPOCH":"2026-04-24T15:20:48.352128","MEAN_MOTION":15.75248036,"ECCENTRICITY":0.00021685,"INCLINATION":97.285,"RA_OF_ASC_NODE":345.7971,"ARG_OF_PERICENTER":100.3922,"MEAN_ANOMALY":259.7587,"EPHEMERIS_TYPE":0,"CLASSIFICATION_TYPE":"U","NORAD_CAT_ID":68672,"ELEMENT_SET_NO":999,"REV_AT_EPOCH":214,"BSTAR":0.00099887273,"MEAN_MOTION_DOT":0.00151926,"MEAN_MOTION_DDOT":0},{"OBJECT_NAME":"STARLINK-37316","OBJECT_ID":"2026-077M","EPOCH":"2026-04-24T03:07:57.538848","MEAN_MOTION":15.75325457,"ECCENTRICITY":0.00011834,"INCLINATION":97.2847,"RA_OF_ASC_NODE":345.2652,"ARG_OF_PERICENTER":59.4023,"MEAN_ANOMALY":300.7359,"EPHEMERIS_TYPE":0,"CLASSIFICATION_TYPE":"U","NORAD_CAT_ID":68673,"ELEMENT_SET_NO":999,"REV_AT_EPOCH":206,"BSTAR":0.0020027079,"MEAN_MOTION_DOT":0.0031157,"MEAN_MOTION_DDOT":0},{"OBJECT_NAME":"STARLINK-36672","OBJECT_ID":"2026-077N","EPOCH":"2026-04-24T15:17:45.481344","MEAN_MOTION":15.75240966,"ECCENTRICITY":0.00022075,"INCLINATION":97.2846,"RA_OF_ASC_NODE":345.7998,"ARG_OF_PERICENTER":90.8714,"MEAN_ANOMALY":269.2804,"EPHEMERIS_TYPE":0,"CLASSIFICATION_TYPE":"U","NORAD_CAT_ID":68674,"ELEMENT_SET_NO":999,"REV_AT_EPOCH":214,"BSTAR":0.00087905806,"MEAN_MOTION_DOT":0.00133355,"MEAN_MOTION_DDOT":0},{"OBJECT_NAME":"STARLINK-36669","OBJECT_ID":"2026-077P","EPOCH":"2026-04-24T15:16:13.954368","MEAN_MOTION":15.75239005,"ECCENTRICITY":0.00011308,"INCLINATION":97.2843,"RA_OF_ASC_NODE":345.8011,"ARG_OF_PERICENTER":124.4837,"MEAN_ANOMALY":235.6535,"EPHEMERIS_TYPE":0,"CLASSIFICATION_TYPE":"U","NORAD_CAT_ID":68675,"ELEMENT_SET_NO":999,"REV_AT_EPOCH":214,"BSTAR":0.00096312772,"MEAN_MOTION_DOT":0.00146323,"MEAN_MOTION_DDOT":0}]
